OBJECT_NAME,OBJECT_ID,EPOCH,MEAN_MOTION,ECCENTRICITY,INCLINATION,RA_OF_ASC_NODE,ARG_OF_PERICENTER,MEAN_ANOMALY,EPHEMERIS_TYPE,CLASSIFICATION_TYPE,NORAD_CAT_ID,ELEMENT_SET_NO,REV_AT_EPOCH,BSTAR,MEAN_MOTION_DOT,MEAN_MOTION_DDOT
ONEWEB-0158,2021-025N,2026-06-13T04:00:36.259776,13.13471471,.00016055,87.8958,321.0174,93.5031,266.6281,0,U,48054,999,25310,-.56868361E-3,-.195E-5,0
ONEWEB-0157,2021-025P,2026-06-13T04:37:10.555392,13.13469719,.0002006,87.8955,321.0182,106.6852,253.4498,0,U,48055,999,25304,.96827982E-3,.366E-5,0
ONEWEB-0162,2021-025Q,2026-06-13T04:02:50.136576,13.13470554,.00019899,87.8953,321.0238,94.5538,265.5818,0,U,48056,999,25301,-.41264097E-3,-.138E-5,0
ONEWEB-0155,2021-025R,2026-06-13T04:12:46.897920,13.13470498,.00016824,87.8951,321.0184,101.8955,258.2363,0,U,48057,999,25315,-.11725144E-3,-.3E-6,0
ONEWEB-0149,2021-025S,2026-06-13T04:44:29.114880,13.13469502,.00020258,87.8957,321.0176,93.7402,266.3958,0,U,48058,999,25296,.81675072E-3,.311E-5,0
ONEWEB-0148,2021-025T,2026-06-13T03:50:50.515296,13.13469871,.00024319,87.8951,321.0322,94.8328,265.3079,0,U,48059,999,25308,-.90455894E-3,-.318E-5,0
ONEWEB-0160,2021-025U,2026-06-13T04:15:13.122144,13.13471165,.00015127,87.8950,321.0249,72.6496,287.4798,0,U,48060,999,25303,.15727313E-3,.7E-6,0
ONEWEB-0163,2021-025V,2026-06-13T03:53:16.190016,13.13471086,.0001931,87.8957,321.0222,104.6737,255.4606,0,U,48061,999,25315,-.79076207E-3,-.276E-5,0
ONEWEB-0159,2021-025W,2026-06-13T03:41:05.131104,13.13470196,.00018834,87.8960,321.0170,103.7778,256.3561,0,U,48062,999,25307,-.98429537E-3,-.347E-5,0
ONEWEB-0164,2021-025X,2026-06-13T03:14:16.440000,13.13469896,.00017479,87.8960,321.0272,94.1060,266.0269,0,U,48063,999,25305,.19219257E-3,.83E-6,0
ONEWEB-0167,2021-025Y,2026-06-13T03:54:28.442880,13.13469963,.00015752,87.8949,321.0322,118.1742,241.9546,0,U,48064,999,25304,-.10313695E-2,-.364E-5,0
ONEWEB-0166,2021-025Z,2026-06-13T04:27:23.612544,13.13471699,.00020173,87.8959,320.9986,97.0492,263.0866,0,U,48065,999,25312,.75558616E-3,.289E-5,0
ONEWEB-0151,2021-025AA,2026-06-13T06:19:32.225088,13.13470249,.00016985,87.8951,321.0001,98.6184,261.5138,0,U,48066,999,25307,.86996335E-3,.33E-5,0
ONEWEB-0170,2021-025AB,2026-06-13T04:42:02.098368,13.13469636,.00013585,87.8951,321.0155,91.7703,268.3582,0,U,48067,999,25302,.93191667E-3,.353E-5,0
ONEWEB-0168,2021-025AC,2026-06-13T04:20:05.585280,13.13470765,.00019578,87.8957,321.0181,100.7456,259.3893,0,U,48068,999,25303,.34049879E-3,.137E-5,0
ONEWEB-0173,2021-025AD,2026-06-12T22:38:49.080768,13.13470073,.00018664,87.8949,321.0673,108.1582,251.9751,0,U,48069,999,25324,.15789887E-4,.19E-6,0
ONEWEB-0171,2021-025AE,2026-06-13T03:11:50.430912,13.13469581,.00017002,87.8950,321.0375,96.2622,263.8701,0,U,48070,999,25308,.78754618E-4,.42E-6,0
ONEWEB-0172,2021-025AF,2026-06-13T04:32:16.616544,13.13470851,.00017456,87.8956,321.0162,101.1055,259.0270,0,U,48071,999,25398,.8133913E-3,.31E-5,0
ONEWEB-0174,2021-025AG,2026-06-13T04:05:28.560480,13.13470847,.00019753,87.8954,321.0194,96.8517,263.2837,0,U,48072,999,25330,-.34241049E-3,-.112E-5,0
ONEWEB-0175,2021-025AH,2026-06-13T02:59:39.464448,13.13470236,.00014776,87.8960,321.0123,100.0892,260.0404,0,U,48073,999,25295,.70666706E-3,.271E-5,0
ONEWEB-0177,2021-025AJ,2026-06-13T03:16:42.615840,13.13470345,.00019868,87.8956,321.0285,100.1845,259.9508,0,U,48074,999,25314,.18562938E-4,.2E-6,0
ONEWEB-0178,2021-025AK,2026-06-13T03:43:42.393792,13.13467980,.00016932,87.8943,321.0379,103.7168,256.4150,0,U,48075,999,25319,-.10297162E-2,-.363E-5,0
ONEWEB-0108,2021-025AL,2026-06-13T04:34:43.463712,13.13469786,.00019209,87.8959,321.0091,89.9016,270.2333,0,U,48076,999,25312,.77211933E-3,.295E-5,0
ONEWEB-0169,2021-025AM,2026-06-13T03:31:20.116704,13.13469771,.00019378,87.8952,321.0259,96.1905,263.9445,0,U,48077,999,25177,-.63372438E-3,-.219E-5,0
ONEWEB-0176,2021-031A,2026-06-13T01:38:49.717536,13.14502887,.00018587,87.8961,290.5199,103.1416,256.9921,0,U,48210,999,24777,-.7479767E-3,-.265E-5,0
ONEWEB-0184,2021-031B,2026-06-13T06:28:50.064096,13.14502640,.00013705,87.8968,290.4805,123.5527,236.5733,0,U,48211,999,24777,.53211699E-3,.21E-5,0
ONEWEB-0179,2021-031C,2026-06-13T05:37:17.719104,14.25520721,.02186088,87.8984,287.9239,270.2343,87.3803,0,U,48212,999,24848,.7780437E-4,.252E-5,0
ONEWEB-0180,2021-031D,2026-06-13T06:33:24.379776,13.14502665,.00020985,87.8966,290.4760,112.3333,247.8020,0,U,48213,999,24770,.39905832E-3,.161E-5,0
ONEWEB-0218,2021-031E,2026-06-12T21:57:19.355040,13.14502151,.00016522,87.8969,290.5463,128.2189,231.9089,0,U,48214,999,24781,-.72601529E-3,-.256E-5,0
ONEWEB-0209,2021-031F,2026-06-13T06:49:22.192896,13.14501411,.00021004,87.8960,290.4902,104.5321,255.6042,0,U,48215,999,24786,-.51593936E-4,-.6E-7,0
