ONEWEB-0158             
1 48054U 21025N   26164.16708634 -.00000195  00000+0 -56868-3 0  9997
2 48054  87.8958 321.0174 0001605  93.5031 266.6281 13.13471471253103
ONEWEB-0157             
1 48055U 21025P   26164.19248328  .00000366  00000+0  96828-3 0  9998
2 48055  87.8955 321.0182 0002006 106.6852 253.4498 13.13469719253042
ONEWEB-0162             
1 48056U 21025Q   26164.16863584 -.00000138  00000+0 -41264-3 0  9996
2 48056  87.8953 321.0238 0001989  94.5538 265.5818 13.13470554253014
ONEWEB-0155             
1 48057U 21025R   26164.17554280 -.00000030  00000+0 -11725-3 0  9998
2 48057  87.8951 321.0184 0001682 101.8955 258.2363 13.13470498253154
ONEWEB-0149             
1 48058U 21025S   26164.19755920  .00000311  00000+0  81675-3 0  9996
2 48058  87.8957 321.0176 0002025  93.7402 266.3958 13.13469502252962
ONEWEB-0148             
1 48059U 21025T   26164.16030689 -.00000318  00000+0 -90456-3 0  9998
2 48059  87.8951 321.0322 0002431  94.8328 265.3079 13.13469871253086
ONEWEB-0160             
1 48060U 21025U   26164.17723521  .00000070  00000+0  15727-3 0  9996
2 48060  87.8950 321.0249 0001512  72.6496 287.4798 13.13471165253031
ONEWEB-0163             
1 48061U 21025V   26164.16199294 -.00000276  00000+0 -79076-3 0  9997
2 48061  87.8957 321.0222 0001931 104.6737 255.4606 13.13471086253157
ONEWEB-0159             
1 48062U 21025W   26164.15353161 -.00000347  00000+0 -98430-3 0  9996
2 48062  87.8960 321.0170 0001883 103.7778 256.3561 13.13470196253077
ONEWEB-0164             
1 48063U 21025X   26164.13491250  .00000083  00000+0  19219-3 0  9990
2 48063  87.8960 321.0272 0001747  94.1060 266.0269 13.13469896253053
ONEWEB-0167             
1 48064U 21025Y   26164.16282920 -.00000364  00000+0 -10314-2 0  9996
2 48064  87.8949 321.0322 0001575 118.1742 241.9546 13.13469963253044
ONEWEB-0166             
1 48065U 21025Z   26164.18568996  .00000289  00000+0  75559-3 0  9996
2 48065  87.8959 320.9986 0002017  97.0492 263.0866 13.13471699253127
ONEWEB-0151             
1 48066U 21025AA  26164.26356742  .00000330  00000+0  86996-3 0  9994
2 48066  87.8951 321.0001 0001698  98.6184 261.5138 13.13470249253078
ONEWEB-0170             
1 48067U 21025AB  26164.19585762  .00000353  00000+0  93192-3 0  9994
2 48067  87.8951 321.0155 0001358  91.7703 268.3582 13.13469636253024
ONEWEB-0168             
1 48068U 21025AC  26164.18062020  .00000137  00000+0  34050-3 0  9999
2 48068  87.8957 321.0181 0001957 100.7456 259.3893 13.13470765253032
ONEWEB-0173             
1 48069U 21025AD  26163.94362362  .00000019  00000+0  15790-4 0  9995
2 48069  87.8949 321.0673 0001866 108.1582 251.9751 13.13470073253247
ONEWEB-0171             
1 48070U 21025AE  26164.13322258  .00000042  00000+0  78755-4 0  9995
2 48070  87.8950 321.0375 0001700  96.2622 263.8701 13.13469581253080
ONEWEB-0172             
1 48071U 21025AF  26164.18908121  .00000310  00000+0  81339-3 0  9999
2 48071  87.8956 321.0162 0001745 101.1055 259.0270 13.13470851253985
ONEWEB-0174             
1 48072U 21025AG  26164.17046945 -.00000112  00000+0 -34241-3 0  9998
2 48072  87.8954 321.0194 0001975  96.8517 263.2837 13.13470847253304
ONEWEB-0175             
1 48073U 21025AH  26164.12476232  .00000271  00000+0  70667-3 0  9996
2 48073  87.8960 321.0123 0001477 100.0892 260.0404 13.13470236252952
ONEWEB-0177             
1 48074U 21025AJ  26164.13660435  .00000020  00000+0  18563-4 0  9998
2 48074  87.8956 321.0285 0001986 100.1845 259.9508 13.13470345253146
ONEWEB-0178             
1 48075U 21025AK  26164.15535178 -.00000363  00000+0 -10297-2 0  9992
2 48075  87.8943 321.0379 0001693 103.7168 256.4150 13.13467980253190
ONEWEB-0108             
1 48076U 21025AL  26164.19078083  .00000295  00000+0  77212-3 0  9997
2 48076  87.8959 321.0091 0001920  89.9016 270.2333 13.13469786253125
ONEWEB-0169             
1 48077U 21025AM  26164.14676061 -.00000219  00000+0 -63372-3 0  9993
2 48077  87.8952 321.0259 0001937  96.1905 263.9445 13.13469771251776
ONEWEB-0176             
1 48210U 21031A   26164.06863099 -.00000265  00000+0 -74798-3 0  9994
2 48210  87.8961 290.5199 0001858 103.1416 256.9921 13.14502887247779
ONEWEB-0184             
1 48211U 21031B   26164.27002389  .00000210  00000+0  53212-3 0  9991
2 48211  87.8968 290.4805 0001370 123.5527 236.5733 13.14502640247770
ONEWEB-0179             
1 48212U 21031C   26164.23423286  .00000252  00000+0  77804-4 0  9991
2 48212  87.8984 287.9239 0218608 270.2343  87.3803 14.25520721248483
ONEWEB-0180             
1 48213U 21031D   26164.27319884  .00000161  00000+0  39906-3 0  9993
2 48213  87.8966 290.4760 0002098 112.3333 247.8020 13.14502665247703
ONEWEB-0218             
1 48214U 21031E   26163.91480735 -.00000256  00000+0 -72602-3 0  9995
2 48214  87.8969 290.5463 0001652 128.2189 231.9089 13.14502151247819
ONEWEB-0209             
1 48215U 21031F   26164.28428464 -.00000006  00000+0 -51594-4 0  9999
2 48215  87.8960 290.4902 0002100 104.5321 255.6042 13.14501411247867
